AMC-3                   
1 24936U 97050A   26074.24059628 -.00000258  00000+0  00000+0 0  9994
2 24936   7.9147  65.1455 0003552 305.1484 177.1552  1.00270709 51493
NSS-11                  
1 26554U 00059A   26074.24519794  .00000025  00000+0  00000+0 0  9991
2 26554   1.8822  82.5243 0003122 277.0689  77.5196  1.00272130 40348
AMC-6                   
1 26580U 00067A   26074.25490464  .00000087  00000+0  00000+0 0  9990
2 26580   0.0189 345.8216 0003181  17.0556 126.6841  1.00272835 92958
AMC-11                  
1 28252U 04017A   26074.25958466 -.00000050  00000+0  00000+0 0  9999
2 28252   0.0674  79.6328 0003238 287.1813 148.3956  1.00272092 79925
AMC-15                  
1 28446U 04041A   26074.18947103 -.00000090  00000+0  00000+0 0  9993
2 28446   0.0388 311.5126 0002311  40.2231 144.2212  1.00272595 78364
NSS-10                  
1 28526U 05003A   26074.26194349 -.00000249  00000+0  00000+0 0  9992
2 28526   6.2132  71.5824 0003149 283.5487 234.5837  1.00272282 52216
ASTRA 1KR               
1 29055U 06012A   26074.27961642  .00000118  00000+0  00000+0 0  9994
2 29055   0.2300  82.0143 0003167 268.8807 301.6390  1.00274079 44754
ASTRA 1L                
1 31306U 07016A   26074.30943840 -.00000185  00000+0  00000+0 0  9990
2 31306   1.0774  82.2968 0003604 294.2959 243.1987  1.00269158 44040
ASTRA 4A                
1 32299U 07057A   26074.28255144  .00000032  00000+0  00000+0 0  9997
2 32299   0.0313 290.2260 0002420  74.7763 274.4075  1.00273193 50704
ASTRA 1M                
1 33436U 08057A   26074.27961642  .00000119  00000+0  00000+0 0  9994
2 33436   0.0577  69.3763 0001613   3.9875 219.3566  1.00273401 44791
NSS-9                   
1 33749U 09008A   26074.24658461  .00000071  00000+0  00000+0 0  9994
2 33749   1.0170  83.5681 0002073 268.1662  92.9497  1.00272934 62579
SES-7 (PROTOSTAR 2)     
1 34941U 09027A   26074.01778365 -.00000346  00000+0  00000+0 0  9997
2 34941   0.0370  79.2383 0001556 240.4285 327.6136  1.00271225 61686
NSS-12                  
1 36032U 09058A   26074.22162451  .00000071  00000+0  00000+0 0  9994
2 36032   0.0442   4.2629 0004883 336.0749 329.2665  1.00271852 59973
SES-1                   
1 36516U 10016A   26074.26157800 -.00000115  00000+0  00000+0 0  9993
2 36516   0.0491 286.1325 0002541  67.4448 172.4490  1.00272375 58095
ASTRA 3B                
1 36581U 10021A   26074.21495115  .00000137  00000+0  00000+0 0  9993
2 36581   1.2261  84.7531 0003293 285.2479 263.6935  1.00269466 57920
SES-3                   
1 37748U 11035A   26074.26123133 -.00000102  00000+0  00000+0 0  9991
2 37748   1.0820  84.1535 0003558 276.8198 162.9272  1.00272033 53656
ASTRA 1N                
1 37775U 11041A   26073.92886326  .00000119  00000+0  00000+0 0  9997
2 37775   0.0823  38.0518 0004686 349.8860 138.1720  1.00273441 43585
