[{"OBJECT_NAME":"AMC-3","OBJECT_ID":"1997-050A","EPOCH":"2026-03-15T05:46:27.518592","MEAN_MOTION":1.00270709,"ECCENTRICITY":0.0003552,"INCLINATION":7.9147,"RA_OF_ASC_NODE":65.1455,"ARG_OF_PERICENTER":305.1484,"MEAN_ANOMALY":177.1552,"EPHEMERIS_TYPE":0,"CLASSIFICATION_TYPE":"U","NORAD_CAT_ID":24936,"ELEMENT_SET_NO":999,"REV_AT_EPOCH":5149,"BSTAR":0,"MEAN_MOTION_DOT":-2.58e-6,"MEAN_MOTION_DDOT":0},{"OBJECT_NAME":"NSS-11","OBJECT_ID":"2000-059A","EPOCH":"2026-03-15T05:53:05.102016","MEAN_MOTION":1.0027213,"ECCENTRICITY":0.00031221,"INCLINATION":1.8822,"RA_OF_ASC_NODE":82.5243,"ARG_OF_PERICENTER":277.0689,"MEAN_ANOMALY":77.5196,"EPHEMERIS_TYPE":0,"CLASSIFICATION_TYPE":"U","NORAD_CAT_ID":26554,"ELEMENT_SET_NO":999,"REV_AT_EPOCH":4034,"BSTAR":0,"MEAN_MOTION_DOT":2.5e-7,"MEAN_MOTION_DDOT":0},{"OBJECT_NAME":"AMC-6","OBJECT_ID":"2000-067A","EPOCH":"2026-03-15T06:07:03.760896","MEAN_MOTION":1.00272835,"ECCENTRICITY":0.00031819,"INCLINATION":0.0189,"RA_OF_ASC_NODE":345.8216,"ARG_OF_PERICENTER":17.0556,"MEAN_ANOMALY":126.6841,"EPHEMERIS_TYPE":0,"CLASSIFICATION_TYPE":"U","NORAD_CAT_ID":26580,"ELEMENT_SET_NO":999,"REV_AT_EPOCH":9295,"BSTAR":0,"MEAN_MOTION_DOT":8.7e-7,"MEAN_MOTION_DDOT":0},{"OBJECT_NAME":"AMC-11","OBJECT_ID":"2004-017A","EPOCH":"2026-03-15T06:13:48.114624","MEAN_MOTION":1.00272092,"ECCENTRICITY":0.00032384,"INCLINATION":0.0674,"RA_OF_ASC_NODE":79.6328,"ARG_OF_PERICENTER":287.1813,"MEAN_ANOMALY":148.3956,"EPHEMERIS_TYPE":0,"CLASSIFICATION_TYPE":"U","NORAD_CAT_ID":28252,"ELEMENT_SET_NO":999,"REV_AT_EPOCH":7992,"BSTAR":0,"MEAN_MOTION_DOT":-5.0e-7,"MEAN_MOTION_DDOT":0},{"OBJECT_NAME":"AMC-15","OBJECT_ID":"2004-041A","EPOCH":"2026-03-15T04:32:50.296992","MEAN_MOTION":1.00272595,"ECCENTRICITY":0.00023114,"INCLINATION":0.0388,"RA_OF_ASC_NODE":311.5126,"ARG_OF_PERICENTER":40.2231,"MEAN_ANOMALY":144.2212,"EPHEMERIS_TYPE":0,"CLASSIFICATION_TYPE":"U","NORAD_CAT_ID":28446,"ELEMENT_SET_NO":999,"REV_AT_EPOCH":7836,"BSTAR":0,"MEAN_MOTION_DOT":-9.0e-7,"MEAN_MOTION_DDOT":0},{"OBJECT_NAME":"NSS-10","OBJECT_ID":"2005-003A","EPOCH":"2026-03-15T06:17:11.917536","MEAN_MOTION":1.00272282,"ECCENTRICITY":0.00031499,"INCLINATION":6.2132,"RA_OF_ASC_NODE":71.5824,"ARG_OF_PERICENTER":283.5487,"MEAN_ANOMALY":234.5837,"EPHEMERIS_TYPE":0,"CLASSIFICATION_TYPE":"U","NORAD_CAT_ID":28526,"ELEMENT_SET_NO":999,"REV_AT_EPOCH":5221,"BSTAR":0,"MEAN_MOTION_DOT":-2.49e-6,"MEAN_MOTION_DDOT":0},{"OBJECT_NAME":"ASTRA 1KR","OBJECT_ID":"2006-012A","EPOCH":"2026-03-15T06:42:38.858688","MEAN_MOTION":1.00274079,"ECCENTRICITY":0.00031677,"INCLINATION":0.23,"RA_OF_ASC_NODE":82.0143,"ARG_OF_PERICENTER":268.8807,"MEAN_ANOMALY":301.639,"EPHEMERIS_TYPE":0,"CLASSIFICATION_TYPE":"U","NORAD_CAT_ID":29055,"ELEMENT_SET_NO":999,"REV_AT_EPOCH":4475,"BSTAR":0,"MEAN_MOTION_DOT":1.18e-6,"MEAN_MOTION_DDOT":0},{"OBJECT_NAME":"ASTRA 1L","OBJECT_ID":"2007-016A","EPOCH":"2026-03-15T07:25:35.477760","MEAN_MOTION":1.00269158,"ECCENTRICITY":0.00036044,"INCLINATION":1.0774,"RA_OF_ASC_NODE":82.2968,"ARG_OF_PERICENTER":294.2959,"MEAN_ANOMALY":243.1987,"EPHEMERIS_TYPE":0,"CLASSIFICATION_TYPE":"U","NORAD_CAT_ID":31306,"ELEMENT_SET_NO":999,"REV_AT_EPOCH":4404,"BSTAR":0,"MEAN_MOTION_DOT":-1.85e-6,"MEAN_MOTION_DDOT":0},{"OBJECT_NAME":"ASTRA 4A","OBJECT_ID":"2007-057A","EPOCH":"2026-03-15T06:46:52.444416","MEAN_MOTION":1.00273193,"ECCENTRICITY":0.00024202,"INCLINATION":0.0313,"RA_OF_ASC_NODE":290.226,"ARG_OF_PERICENTER":74.7763,"MEAN_ANOMALY":274.4075,"EPHEMERIS_TYPE":0,"CLASSIFICATION_TYPE":"U","NORAD_CAT_ID":32299,"ELEMENT_SET_NO":999,"REV_AT_EPOCH":5070,"BSTAR":0,"MEAN_MOTION_DOT":3.2e-7,"MEAN_MOTION_DDOT":0},{"OBJECT_NAME":"ASTRA 1M","OBJECT_ID":"2008-057A","EPOCH":"2026-03-15T06:42:38.858688","MEAN_MOTION":1.00273401,"ECCENTRICITY":0.00016133,"INCLINATION":0.0577,"RA_OF_ASC_NODE":69.3763,"ARG_OF_PERICENTER":3.9875,"MEAN_ANOMALY":219.3566,"EPHEMERIS_TYPE":0,"CLASSIFICATION_TYPE":"U","NORAD_CAT_ID":33436,"ELEMENT_SET_NO":999,"REV_AT_EPOCH":4479,"BSTAR":0,"MEAN_MOTION_DOT":1.19e-6,"MEAN_MOTION_DDOT":0},{"OBJECT_NAME":"NSS-9","OBJECT_ID":"2009-008A","EPOCH":"2026-03-15T05:55:04.910304","MEAN_MOTION":1.00272934,"ECCENTRICITY":0.00020737,"INCLINATION":1.017,"RA_OF_ASC_NODE":83.5681,"ARG_OF_PERICENTER":268.1662,"MEAN_ANOMALY":92.9497,"EPHEMERIS_TYPE":0,"CLASSIFICATION_TYPE":"U","NORAD_CAT_ID":33749,"ELEMENT_SET_NO":999,"REV_AT_EPOCH":6257,"BSTAR":0,"MEAN_MOTION_DOT":7.1e-7,"MEAN_MOTION_DDOT":0},{"OBJECT_NAME":"SES-7 (PROTOSTAR 2)","OBJECT_ID":"2009-027A","EPOCH":"2026-03-15T00:25:36.507360","MEAN_MOTION":1.00271225,"ECCENTRICITY":0.00015567,"INCLINATION":0.037,"RA_OF_ASC_NODE":79.2383,"ARG_OF_PERICENTER":240.4285,"MEAN_ANOMALY":327.6136,"EPHEMERIS_TYPE":0,"CLASSIFICATION_TYPE":"U","NORAD_CAT_ID":34941,"ELEMENT_SET_NO":999,"REV_AT_EPOCH":6168,"BSTAR":0,"MEAN_MOTION_DOT":-3.46e-6,"MEAN_MOTION_DDOT":0},{"OBJECT_NAME":"NSS-12","OBJECT_ID":"2009-058A","EPOCH":"2026-03-15T05:19:08.357664","MEAN_MOTION":1.00271852,"ECCENTRICITY":0.00048834,"INCLINATION":0.0442,"RA_OF_ASC_NODE":4.2629,"ARG_OF_PERICENTER":336.0749,"MEAN_ANOMALY":329.2665,"EPHEMERIS_TYPE":0,"CLASSIFICATION_TYPE":"U","NORAD_CAT_ID":36032,"ELEMENT_SET_NO":999,"REV_AT_EPOCH":5997,"BSTAR":0,"MEAN_MOTION_DOT":7.1e-7,"MEAN_MOTION_DDOT":0},{"OBJECT_NAME":"SES-1","OBJECT_ID":"2010-016A","EPOCH":"2026-03-15T06:16:40.339200","MEAN_MOTION":1.00272375,"ECCENTRICITY":0.00025418,"INCLINATION":0.0491,"RA_OF_ASC_NODE":286.1325,"ARG_OF_PERICENTER":67.4448,"MEAN_ANOMALY":172.449,"EPHEMERIS_TYPE":0,"CLASSIFICATION_TYPE":"U","NORAD_CAT_ID":36516,"ELEMENT_SET_NO":999,"REV_AT_EPOCH":5809,"BSTAR":0,"MEAN_MOTION_DOT":-1.15e-6,"MEAN_MOTION_DDOT":0},{"OBJECT_NAME":"ASTRA 3B","OBJECT_ID":"2010-021A","EPOCH":"2026-03-15T05:09:31.779360","MEAN_MOTION":1.00269466,"ECCENTRICITY":0.00032932,"INCLINATION":1.2261,"RA_OF_ASC_NODE":84.7531,"ARG_OF_PERICENTER":285.2479,"MEAN_ANOMALY":263.6935,"EPHEMERIS_TYPE":0,"CLASSIFICATION_TYPE":"U","NORAD_CAT_ID":36581,"ELEMENT_SET_NO":999,"REV_AT_EPOCH":5792,"BSTAR":0,"MEAN_MOTION_DOT":1.37e-6,"MEAN_MOTION_DDOT":0},{"OBJECT_NAME":"SES-3","OBJECT_ID":"2011-035A","EPOCH":"2026-03-15T06:16:10.386912","MEAN_MOTION":1.00272033,"ECCENTRICITY":0.00035583,"INCLINATION":1.082,"RA_OF_ASC_NODE":84.1535,"ARG_OF_PERICENTER":276.8198,"MEAN_ANOMALY":162.9272,"EPHEMERIS_TYPE":0,"CLASSIFICATION_TYPE":"U","NORAD_CAT_ID":37748,"ELEMENT_SET_NO":999,"REV_AT_EPOCH":5365,"BSTAR":0,"MEAN_MOTION_DOT":-1.02e-6,"MEAN_MOTION_DDOT":0},{"OBJECT_NAME":"ASTRA 1N","OBJECT_ID":"2011-041A","EPOCH":"2026-03-14T22:17:33.785664","MEAN_MOTION":1.00273441,"ECCENTRICITY":0.00046866,"INCLINATION":0.0823,"RA_OF_ASC_NODE":38.0518,"ARG_OF_PERICENTER":349.886,"MEAN_ANOMALY":138.172,"EPHEMERIS_TYPE":0,"CLASSIFICATION_TYPE":"U","NORAD_CAT_ID":37775,"ELEMENT_SET_NO":999,"REV_AT_EPOCH":4358,"BSTAR":0,"MEAN_MOTION_DOT":1.19e-6,"MEAN_MOTION_DDOT":0}]
